start=new Date('2023-06-16T00:00:00.000Z').valueOf();
sats=[{"TLE_LINE2":"2 53509  97.6567 287.4562 0001828  95.7310 264.4122 15.01260966 46201","EPHEMERIS_TYPE":"0","MEAN_MOTION":"15.01260966","RA_OF_ASC_NODE":"287.4562","BSTAR":"0.00004321900000","OBJECT_TYPE":"PAYLOAD","SEMIMAJOR_AXIS":"6941.144","APOAPSIS":"564.278","CENTER_NAME":"EARTH","SITE":"AFWTR","CLASSIFICATION_TYPE":"U","OBJECT_NAME":"STARLINK-4402","ECCENTRICITY":"0.00018280","OBJECT_ID":"2022-099AW","GP_ID":"233988015","PERIOD":"95.919","INCLINATION":"97.6567","MEAN_MOTION_DOT":"0.00000496","REF_FRAME":"TEME","TIME_SYSTEM":"UTC","TLE_LINE1":"1 53509U 22099AW  23166.34204716  .00000496  00000-0  43219-4 0  9991","REV_AT_EPOCH":"4620","PERIAPSIS":"561.740","ARG_OF_PERICENTER":"95.7310","ELEMENT_SET_NO":"999","MEAN_ANOMALY":"264.4122","MEAN_ELEMENT_THEORY":"SGP4","LAUNCH_DATE":"2022-08-12","DECAY_DATE":null,"FILE":"3933820","EPOCH":"2023-06-15T08:12:32.874624","NORAD_CAT_ID":"53509","RCS_SIZE":"LARGE","MEAN_MOTION_DDOT":"0.0000000000000","COUNTRY_CODE":"US"},{"SEMIMAJOR_AXIS":"6941.146","BSTAR":"0.00013749000000","OBJECT_TYPE":"PAYLOAD","RA_OF_ASC_NODE":"287.4563","MEAN_MOTION":"15.01260234","EPHEMERIS_TYPE":"0","TLE_LINE2":"2 53510  97.6560 287.4563 0001889  99.9782 260.1656 15.01260234 46206","SITE":"AFWTR","CENTER_NAME":"EARTH","APOAPSIS":"564.322","OBJECT_NAME":"STARLINK-4441","ECCENTRICITY":"0.00018890","CLASSIFICATION_TYPE":"U","MEAN_MOTION_DOT":"0.00001707","INCLINATION":"97.6560","PERIOD":"95.919","GP_ID":"233988766","OBJECT_ID":"2022-099AX","TLE_LINE1":"1 53510U 22099AX  23166.34365239  .00001707  00000-0  13749-3 0  9991","TIME_SYSTEM":"UTC","REF_FRAME":"TEME","ELEMENT_SET_NO":"999","ARG_OF_PERICENTER":"99.9782","PERIAPSIS":"561.700","REV_AT_EPOCH":"4620","FILE":"3933820","EPOCH":"2023-06-15T08:14:51.566496","DECAY_DATE":null,"LAUNCH_DATE":"2022-08-12","MEAN_ANOMALY":"260.1656","MEAN_ELEMENT_THEORY":"SGP4","COUNTRY_CODE":"US","RCS_SIZE":"LARGE","MEAN_MOTION_DDOT":"0.0000000000000","NORAD_CAT_ID":"53510"},{"OBJECT_NAME":"STARLINK-4511","ECCENTRICITY":"0.00009790","CLASSIFICATION_TYPE":"U","INCLINATION":"53.2160","MEAN_MOTION_DOT":"0.00000649","PERIOD":"95.438","GP_ID":"234022477","OBJECT_ID":"2022-101A","SEMIMAJOR_AXIS":"6917.886","BSTAR":"0.00005884200000","OBJECT_TYPE":"PAYLOAD","RA_OF_ASC_NODE":"234.7005","MEAN_MOTION":"15.08838100","TLE_LINE2":"2 53527  53.2160 234.7005 0000979  68.9029 291.2068 15.08838100 45484","EPHEMERIS_TYPE":"0","SITE":"AFETR","CENTER_NAME":"EARTH","APOAPSIS":"540.428","FILE":"3934071","EPOCH":"2023-06-15T14:30:05.217984","DECAY_DATE":null,"LAUNCH_DATE":"2022-08-19","MEAN_ELEMENT_THEORY":"SGP4","MEAN_ANOMALY":"291.2068","COUNTRY_CODE":"US","MEAN_MOTION_DDOT":"0.0000000000000","RCS_SIZE":"LARGE","NORAD_CAT_ID":"53527","TLE_LINE1":"1 53527U 22101A   23166.60422706  .00000649  00000-0  58842-4 0  9993","TIME_SYSTEM":"UTC","REF_FRAME":"TEME","ELEMENT_SET_NO":"999","ARG_OF_PERICENTER":"68.9029","PERIAPSIS":"539.074","REV_AT_EPOCH":"4548"},{"ELEMENT_SET_NO":"999","ARG_OF_PERICENTER":"83.4133","PERIAPSIS":"539.151","REV_AT_EPOCH":"4549","TLE_LINE1":"1 53528U 22101B   23166.67413250  .00013855  00000-0  88610-3 0  9993","TIME_SYSTEM":"UTC","REF_FRAME":"TEME","COUNTRY_CODE":"US","MEAN_MOTION_DDOT":"0.0000000000000","RCS_SIZE":"LARGE","NORAD_CAT_ID":"53528","EPOCH":"2023-06-15T16:10:45.048000","FILE":"3934071","DECAY_DATE":null,"LAUNCH_DATE":"2022-08-19","MEAN_ELEMENT_THEORY":"SGP4","MEAN_ANOMALY":"276.6940","SITE":"AFETR","CENTER_NAME":"EARTH","APOAPSIS":"540.142","SEMIMAJOR_AXIS":"6917.782","OBJECT_TYPE":"PAYLOAD","BSTAR":"0.00088610000000","RA_OF_ASC_NODE":"234.3868","MEAN_MOTION":"15.08872309","TLE_LINE2":"2 53528  53.2156 234.3868 0000716  83.4133 276.6940 15.08872309 45496","EPHEMERIS_TYPE":"0","INCLINATION":"53.2156","MEAN_MOTION_DOT":"0.00013855","PERIOD":"95.436","GP_ID":"234020739","OBJECT_ID":"2022-101B","OBJECT_NAME":"STARLINK-4503","ECCENTRICITY":"0.00007160","CLASSIFICATION_TYPE":"U"},{"INCLINATION":"53.2154","MEAN_MOTION_DOT":"0.00000636","PERIOD":"95.438","GP_ID":"233989519","OBJECT_ID":"2022-101C","ECCENTRICITY":"0.00009610","OBJECT_NAME":"STARLINK-4478","CLASSIFICATION_TYPE":"U","SITE":"AFETR","APOAPSIS":"540.422","CENTER_NAME":"EARTH","SEMIMAJOR_AXIS":"6917.892","OBJECT_TYPE":"PAYLOAD","BSTAR":"0.00005807100000","MEAN_MOTION":"15.08836168","RA_OF_ASC_NODE":"235.3141","EPHEMERIS_TYPE":"0","TLE_LINE2":"2 53529  53.2154 235.3141 0000961  77.5117 282.5983 15.08836168 45461","COUNTRY_CODE":"US","MEAN_MOTION_DDOT":"0.0000000000000","RCS_SIZE":"LARGE","NORAD_CAT_ID":"53529","EPOCH":"2023-06-15T11:14:01.309344","FILE":"3933820","DECAY_DATE":null,"LAUNCH_DATE":"2022-08-19","MEAN_ANOMALY":"282.5983","MEAN_ELEMENT_THEORY":"SGP4","ARG_OF_PERICENTER":"77.5117","ELEMENT_SET_NO":"999","REV_AT_EPOCH":"4546","PERIAPSIS":"539.092","TLE_LINE1":"1 53529U 22101C   23166.46807071  .00000636  00000-0  58071-4 0  9991","TIME_SYSTEM":"UTC","REF_FRAME":"TEME"},{"OBJECT_TYPE":"PAYLOAD","BSTAR":"0.00004188500000","SEMIMAJOR_AXIS":"6917.878","TLE_LINE2":"2 53530  53.2151 235.3416 0001041 111.3395 248.7708 15.08840749 45469","EPHEMERIS_TYPE":"0","MEAN_MOTION":"15.08840749","RA_OF_ASC_NODE":"235.3416","CENTER_NAME":"EARTH","APOAPSIS":"540.463","SITE":"AFETR","CLASSIFICATION_TYPE":"U","ECCENTRICITY":"0.00010410","OBJECT_NAME":"STARLINK-4482","PERIOD":"95.438","INCLINATION":"53.2151","MEAN_MOTION_DOT":"0.00000379","OBJECT_ID":"2022-101D","GP_ID":"233989269","TIME_SYSTEM":"UTC","TLE_LINE1":"1 53530U 22101D   23166.46166517  .00000379  00000-0  41885-4 0  9995","REF_FRAME":"TEME","ARG_OF_PERICENTER":"111.3395","ELEMENT_SET_NO":"999","REV_AT_EPOCH":"4546","PERIAPSIS":"539.023","DECAY_DATE":null,"LAUNCH_DATE":"2022-08-19","EPOCH":"2023-06-15T11:04:47.870688","FILE":"3933820","MEAN_ELEMENT_THEORY":"SGP4","MEAN_ANOMALY":"248.7708","COUNTRY_CODE":"US","NORAD_CAT_ID":"53530","RCS_SIZE":"LARGE","MEAN_MOTION_DDOT":"0.0000000000000"},{"TLE_LINE1":"1 53531U 22101E   23166.46438548  .00000600  00000-0  55757-4 0  9992","TIME_SYSTEM":"UTC","REF_FRAME":"TEME","ELEMENT_SET_NO":"999","ARG_OF_PERICENTER":"75.9668","PERIAPSIS":"538.925","REV_AT_EPOCH":"4546","FILE":"3933820","EPOCH":"2023-06-15T11:08:42.905472","LAUNCH_DATE":"2022-08-19","DECAY_DATE":null,"MEAN_ELEMENT_THEORY":"SGP4","MEAN_ANOMALY":"284.1454","COUNTRY_CODE":"US","MEAN_MOTION_DDOT":"0.0000000000000","RCS_SIZE":"LARGE","NORAD_CAT_ID":"53531","SEMIMAJOR_AXIS":"6917.870","BSTAR":"0.00005575700000","OBJECT_TYPE":"PAYLOAD","RA_OF_ASC_NODE":"235.3299","MEAN_MOTION":"15.08843262","EPHEMERIS_TYPE":"0","TLE_LINE2":"2 53531  53.2153 235.3299 0001171  75.9668 284.1454 15.08843262 45468","SITE":"AFETR","APOAPSIS":"540.546","CENTER_NAME":"EARTH","ECCENTRICITY":"0.00011710","OBJECT_NAME":"STARLINK-4487","CLASSIFICATION_TYPE":"U","MEAN_MOTION_DOT":"0.00000600","INCLINATION":"53.2153","PERIOD":"95.437","GP_ID":"233988017","OBJECT_ID":"2022-101E"},{"GP_ID":"233988768","OBJECT_ID":"2022-101F","INCLINATION":"53.2156","MEAN_MOTION_DOT":"0.00001958","PERIOD":"95.438","ECCENTRICITY":"0.00011340","OBJECT_NAME":"STARLINK-4483","CLASSIFICATION_TYPE":"U","SITE":"AFETR","APOAPSIS":"540.543","CENTER_NAME":"EARTH","MEAN_MOTION":"15.08835666","RA_OF_ASC_NODE":"235.1784","EPHEMERIS_TYPE":"0","TLE_LINE2":"2 53532  53.2156 235.1784 0001134  99.6439 260.4681 15.08835666 45476","SEMIMAJOR_AXIS":"6917.894","OBJECT_TYPE":"PAYLOAD","BSTAR":"0.00014109000000","MEAN_MOTION_DDOT":"0.0000000000000","RCS_SIZE":"LARGE","NORAD_CAT_ID":"53532","COUNTRY_CODE":"US","MEAN_ELEMENT_THEORY":"SGP4","MEAN_ANOMALY":"260.4681","EPOCH":"2023-06-15T11:56:24.932256","FILE":"3933820","DECAY_DATE":null,"LAUNCH_DATE":"2022-08-19","REV_AT_EPOCH":"4547","PERIAPSIS":"538.974","ARG_OF_PERICENTER":"99.6439","ELEMENT_SET_NO":"999","REF_FRAME":"TEME","TLE_LINE1":"1 53532U 22101F   23166.49751079  .00001958  00000-0  14109-3 0  9995","TIME_SYSTEM":"UTC"},{"CLASSIFICATION_TYPE":"U","OBJECT_NAME":"STARLINK-4493","ECCENTRICITY":"0.00009820","OBJECT_ID":"2022-101G","GP_ID":"233989019","PERIOD":"95.438","MEAN_MOTION_DOT":"-0.00000046","INCLINATION":"53.2159","TLE_LINE2":"2 53533  53.2159 235.1852 0000982 103.9847 256.1254 15.08831139 45477","EPHEMERIS_TYPE":"0","MEAN_MOTION":"15.08831139","RA_OF_ASC_NODE":"235.1852","OBJECT_TYPE":"PAYLOAD","BSTAR":"0.00001516800000","SEMIMAJOR_AXIS":"6917.907","APOAPSIS":"540.452","CENTER_NAME":"EARTH","SITE":"AFETR","MEAN_ANOMALY":"256.1254","MEAN_ELEMENT_THEORY":"SGP4","LAUNCH_DATE":"2022-08-19","DECAY_DATE":null,"EPOCH":"2023-06-15T11:51:06.983712","FILE":"3933820","NORAD_CAT_ID":"53533","RCS_SIZE":"LARGE","MEAN_MOTION_DDOT":"0.0000000000000","COUNTRY_CODE":"US","REF_FRAME":"TEME","TIME_SYSTEM":"UTC","TLE_LINE1":"1 53533U 22101G   23166.49383083 -.00000046  00000-0  15168-4 0  9997","REV_AT_EPOCH":"4547","PERIAPSIS":"539.093","ARG_OF_PERICENTER":"103.9847","ELEMENT_SET_NO":"999"},{"FILE":"3933820","EPOCH":"2023-06-15T11:35:12.939360","DECAY_DATE":null,"LAUNCH_DATE":"2022-08-19","MEAN_ELEMENT_THEORY":"SGP4","MEAN_ANOMALY":"254.4643","COUNTRY_CODE":"US","RCS_SIZE":"LARGE","MEAN_MOTION_DDOT":"0.0000000000000","NORAD_CAT_ID":"53534","TLE_LINE1":"1 53534U 22101H   23166.48278865 -.00000045  00000-0  15250-4 0  9999","TIME_SYSTEM":"UTC","REF_FRAME":"TEME","ELEMENT_SET_NO":"999","ARG_OF_PERICENTER":"105.6475","PERIAPSIS":"538.971","REV_AT_EPOCH":"4547","ECCENTRICITY":"0.00011330","OBJECT_NAME":"STARLINK-4488","CLASSIFICATION_TYPE":"U","INCLINATION":"53.2173","MEAN_MOTION_DOT":"-0.00000045","PERIOD":"95.438","GP_ID":"233989770","OBJECT_ID":"2022-101H","SEMIMAJOR_AXIS":"6917.890","OBJECT_TYPE":"PAYLOAD","BSTAR":"0.00001525000000","RA_OF_ASC_NODE":"235.2467","MEAN_MOTION":"15.08836877","TLE_LINE2":"2 53534  53.2173 235.2467 0001133 105.6475 254.4643 15.08836877 45479","EPHEMERIS_TYPE":"0","SITE":"AFETR","CENTER_NAME":"EARTH","APOAPSIS":"540.539"}];
